[{"OBJECT_NAME":"STARLINK-3191","OBJECT_ID":"2021-115AY","EPOCH":"2026-03-09T11:18:08.673408","MEAN_MOTION":15.0883744,"ECCENTRICITY":0.00013589,"INCLINATION":53.2176,"RA_OF_ASC_NODE":140.1532,"ARG_OF_PERICENTER":89.6849,"MEAN_ANOMALY":270.4299,"EPHEMERIS_TYPE":0,"CLASSIFICATION_TYPE":"U","NORAD_CAT_ID":49770,"ELEMENT_SET_NO":999,"REV_AT_EPOCH":23676,"BSTAR":-1.9204854e-5,"MEAN_MOTION_DOT":-5.94e-6,"MEAN_MOTION_DDOT":0},{"OBJECT_NAME":"JILIN-01 KUANFU 02B 1","OBJECT_ID":"2024-169A","EPOCH":"2026-03-09T22:23:47.298048","MEAN_MOTION":15.0926333,"ECCENTRICITY":0.00080135,"INCLINATION":97.5562,"RA_OF_ASC_NODE":159.9206,"ARG_OF_PERICENTER":20.9587,"MEAN_ANOMALY":339.1969,"EPHEMERIS_TYPE":0,"CLASSIFICATION_TYPE":"U","NORAD_CAT_ID":61189,"ELEMENT_SET_NO":999,"REV_AT_EPOCH":8085,"BSTAR":0.00041363535,"MEAN_MOTION_DOT":6.529e-5,"MEAN_MOTION_DDOT":0}]
